<?xml version="1.0" encoding="UTF-8"?>
<ndm xmlns:xsi="http://www.w3.org/2001/XMLSchema-instance" xsi:noNamespaceSchemaLocation="https://sanaregistry.org/r/ndmxml_unqualified/ndmxml-2.0.0-master-2.0.xsd">
<omm id="CCSDS_OMM_VERS" version="2.0">
<header><CREATION_DATE/><ORIGINATOR/></header><body><segment><metadata><OBJECT_NAME>ORBCOMM FM103</OBJECT_NAME><OBJECT_ID>2014-040F</OBJECT_ID><CENTER_NAME>EARTH</CENTER_NAME><REF_FRAME>TEME</REF_FRAME><TIME_SYSTEM>UTC</TIME_SYSTEM><MEAN_ELEMENT_THEORY>SGP4</MEAN_ELEMENT_THEORY></metadata><data><meanElements><EPOCH>2024-08-18T20:09:29.960640</EPOCH><MEAN_MOTION>14.56914672</MEAN_MOTION><ECCENTRICITY>.0002287</ECCENTRICITY><INCLINATION>47.0067</INCLINATION><RA_OF_ASC_NODE>4.4861</RA_OF_ASC_NODE><ARG_OF_PERICENTER>306.0980</ARG_OF_PERICENTER><MEAN_ANOMALY>53.9693</MEAN_ANOMALY></meanElements><tleParameters><EPHEMERIS_TYPE>0</EPHEMERIS_TYPE><CLASSIFICATION_TYPE>U</CLASSIFICATION_TYPE><NORAD_CAT_ID>40091</NORAD_CAT_ID><ELEMENT_SET_NO>999</ELEMENT_SET_NO><REV_AT_EPOCH>53705</REV_AT_EPOCH><BSTAR>.67002E-3</BSTAR><MEAN_MOTION_DOT>.2869E-4</MEAN_MOTION_DOT><MEAN_MOTION_DDOT>0</MEAN_MOTION_DDOT></tleParameters></data></segment></body></omm>
<omm id="CCSDS_OMM_VERS" version="2.0">
<header><CREATION_DATE/><ORIGINATOR/></header><body><segment><metadata><OBJECT_NAME>ORBCOMM FM114</OBJECT_NAME><OBJECT_ID>2015-081A</OBJECT_ID><CENTER_NAME>EARTH</CENTER_NAME><REF_FRAME>TEME</REF_FRAME><TIME_SYSTEM>UTC</TIME_SYSTEM><MEAN_ELEMENT_THEORY>SGP4</MEAN_ELEMENT_THEORY></metadata><data><meanElements><EPOCH>2024-08-18T14:17:12.166080</EPOCH><MEAN_MOTION>14.56942597</MEAN_MOTION><ECCENTRICITY>.0001797</ECCENTRICITY><INCLINATION>47.0014</INCLINATION><RA_OF_ASC_NODE>274.8546</RA_OF_ASC_NODE><ARG_OF_PERICENTER>354.0661</ARG_OF_PERICENTER><MEAN_ANOMALY>6.0202</MEAN_ANOMALY></meanElements><tleParameters><EPHEMERIS_TYPE>0</EPHEMERIS_TYPE><CLASSIFICATION_TYPE>U</CLASSIFICATION_TYPE><NORAD_CAT_ID>41179</NORAD_CAT_ID><ELEMENT_SET_NO>999</ELEMENT_SET_NO><REV_AT_EPOCH>46032</REV_AT_EPOCH><BSTAR>.52904E-3</BSTAR><MEAN_MOTION_DOT>.2231E-4</MEAN_MOTION_DOT><MEAN_MOTION_DDOT>0</MEAN_MOTION_DDOT></tleParameters></data></segment></body></omm>
<omm id="CCSDS_OMM_VERS" version="2.0">
<header><CREATION_DATE/><ORIGINATOR/></header><body><segment><metadata><OBJECT_NAME>ORBCOMM FM119</OBJECT_NAME><OBJECT_ID>2015-081B</OBJECT_ID><CENTER_NAME>EARTH</CENTER_NAME><REF_FRAME>TEME</REF_FRAME><TIME_SYSTEM>UTC</TIME_SYSTEM><MEAN_ELEMENT_THEORY>SGP4</MEAN_ELEMENT_THEORY></metadata><data><meanElements><EPOCH>2024-08-18T20:16:30.670752</EPOCH><MEAN_MOTION>14.56890734</MEAN_MOTION><ECCENTRICITY>.0000602</ECCENTRICITY><INCLINATION>46.9989</INCLINATION><RA_OF_ASC_NODE>182.9024</RA_OF_ASC_NODE><ARG_OF_PERICENTER>92.1438</ARG_OF_PERICENTER><MEAN_ANOMALY>267.9516</MEAN_ANOMALY></meanElements><tleParameters><EPHEMERIS_TYPE>0</EPHEMERIS_TYPE><CLASSIFICATION_TYPE>U</CLASSIFICATION_TYPE><NORAD_CAT_ID>41180</NORAD_CAT_ID><ELEMENT_SET_NO>999</ELEMENT_SET_NO><REV_AT_EPOCH>46161</REV_AT_EPOCH><BSTAR>.64314E-3</BSTAR><MEAN_MOTION_DOT>.2746E-4</MEAN_MOTION_DOT><MEAN_MOTION_DDOT>0</MEAN_MOTION_DDOT></tleParameters></data></segment></body></omm>
<omm id="CCSDS_OMM_VERS" version="2.0">
<header><CREATION_DATE/><ORIGINATOR/></header><body><segment><metadata><OBJECT_NAME>ORBCOMM FM105</OBJECT_NAME><OBJECT_ID>2015-081C</OBJECT_ID><CENTER_NAME>EARTH</CENTER_NAME><REF_FRAME>TEME</REF_FRAME><TIME_SYSTEM>UTC</TIME_SYSTEM><MEAN_ELEMENT_THEORY>SGP4</MEAN_ELEMENT_THEORY></metadata><data><meanElements><EPOCH>2024-08-17T19:18:49.720896</EPOCH><MEAN_MOTION>14.44554097</MEAN_MOTION><ECCENTRICITY>.000168</ECCENTRICITY><INCLINATION>47.0011</INCLINATION><RA_OF_ASC_NODE>163.8535</RA_OF_ASC_NODE><ARG_OF_PERICENTER>17.7926</ARG_OF_PERICENTER><MEAN_ANOMALY>342.3012</MEAN_ANOMALY></meanElements><tleParameters><EPHEMERIS_TYPE>0</EPHEMERIS_TYPE><CLASSIFICATION_TYPE>U</CLASSIFICATION_TYPE><NORAD_CAT_ID>41181</NORAD_CAT_ID><ELEMENT_SET_NO>999</ELEMENT_SET_NO><REV_AT_EPOCH>45687</REV_AT_EPOCH><BSTAR>.53284E-3</BSTAR><MEAN_MOTION_DOT>.1702E-4</MEAN_MOTION_DOT><MEAN_MOTION_DDOT>0</MEAN_MOTION_DDOT></tleParameters></data></segment></body></omm>
<omm id="CCSDS_OMM_VERS" version="2.0">
<header><CREATION_DATE/><ORIGINATOR/></header><body><segment><metadata><OBJECT_NAME>ORBCOMM FM110</OBJECT_NAME><OBJECT_ID>2015-081D</OBJECT_ID><CENTER_NAME>EARTH</CENTER_NAME><REF_FRAME>TEME</REF_FRAME><TIME_SYSTEM>UTC</TIME_SYSTEM><MEAN_ELEMENT_THEORY>SGP4</MEAN_ELEMENT_THEORY></metadata><data><meanElements><EPOCH>2024-08-18T13:44:06.452160</EPOCH><MEAN_MOTION>14.57005538</MEAN_MOTION><ECCENTRICITY>.0002555</ECCENTRICITY><INCLINATION>47.0002</INCLINATION><RA_OF_ASC_NODE>274.3596</RA_OF_ASC_NODE><ARG_OF_PERICENTER>242.4395</ARG_OF_PERICENTER><MEAN_ANOMALY>117.6231</MEAN_ANOMALY></meanElements><tleParameters><EPHEMERIS_TYPE>0</EPHEMERIS_TYPE><CLASSIFICATION_TYPE>U</CLASSIFICATION_TYPE><NORAD_CAT_ID>41182</NORAD_CAT_ID><ELEMENT_SET_NO>999</ELEMENT_SET_NO><REV_AT_EPOCH>46019</REV_AT_EPOCH><BSTAR>.55344E-3</BSTAR><MEAN_MOTION_DOT>.2345E-4</MEAN_MOTION_DOT><MEAN_MOTION_DDOT>0</MEAN_MOTION_DDOT></tleParameters></data></segment></body></omm>
<omm id="CCSDS_OMM_VERS" version="2.0">
<header><CREATION_DATE/><ORIGINATOR/></header><body><segment><metadata><OBJECT_NAME>ORBCOMM FM118</OBJECT_NAME><OBJECT_ID>2015-081E</OBJECT_ID><CENTER_NAME>EARTH</CENTER_NAME><REF_FRAME>TEME</REF_FRAME><TIME_SYSTEM>UTC</TIME_SYSTEM><MEAN_ELEMENT_THEORY>SGP4</MEAN_ELEMENT_THEORY></metadata><data><meanElements><EPOCH>2024-08-18T13:12:07.553088</EPOCH><MEAN_MOTION>14.56991945</MEAN_MOTION><ECCENTRICITY>.000271</ECCENTRICITY><INCLINATION>47.0026</INCLINATION><RA_OF_ASC_NODE>274.7959</RA_OF_ASC_NODE><ARG_OF_PERICENTER>237.1396</ARG_OF_PERICENTER><MEAN_ANOMALY>122.9228</MEAN_ANOMALY></meanElements><tleParameters><EPHEMERIS_TYPE>0</EPHEMERIS_TYPE><CLASSIFICATION_TYPE>U</CLASSIFICATION_TYPE><NORAD_CAT_ID>41183</NORAD_CAT_ID><ELEMENT_SET_NO>999</ELEMENT_SET_NO><REV_AT_EPOCH>46029</REV_AT_EPOCH><BSTAR>.5311E-3</BSTAR><MEAN_MOTION_DOT>.2243E-4</MEAN_MOTION_DOT><MEAN_MOTION_DDOT>0</MEAN_MOTION_DDOT></tleParameters></data></segment></body></omm>
<omm id="CCSDS_OMM_VERS" version="2.0">
<header><CREATION_DATE/><ORIGINATOR/></header><body><segment><metadata><OBJECT_NAME>ORBCOMM FM112</OBJECT_NAME><OBJECT_ID>2015-081F</OBJECT_ID><CENTER_NAME>EARTH</CENTER_NAME><REF_FRAME>TEME</REF_FRAME><TIME_SYSTEM>UTC</TIME_SYSTEM><MEAN_ELEMENT_THEORY>SGP4</MEAN_ELEMENT_THEORY></metadata><data><meanElements><EPOCH>2024-08-18T21:22:10.785504</EPOCH><MEAN_MOTION>14.56873979</MEAN_MOTION><ECCENTRICITY>.0001283</ECCENTRICITY><INCLINATION>46.9973</INCLINATION><RA_OF_ASC_NODE>181.8867</RA_OF_ASC_NODE><ARG_OF_PERICENTER>53.8642</ARG_OF_PERICENTER><MEAN_ANOMALY>306.2362</MEAN_ANOMALY></meanElements><tleParameters><EPHEMERIS_TYPE>0</EPHEMERIS_TYPE><CLASSIFICATION_TYPE>U</CLASSIFICATION_TYPE><NORAD_CAT_ID>41184</NORAD_CAT_ID><ELEMENT_SET_NO>999</ELEMENT_SET_NO><REV_AT_EPOCH>46156</REV_AT_EPOCH><BSTAR>.61236E-3</BSTAR><MEAN_MOTION_DOT>.2605E-4</MEAN_MOTION_DOT><MEAN_MOTION_DDOT>0</MEAN_MOTION_DDOT></tleParameters></data></segment></body></omm>
<omm id="CCSDS_OMM_VERS" version="2.0">
<header><CREATION_DATE/><ORIGINATOR/></header><body><segment><metadata><OBJECT_NAME>ORBCOMM FM113</OBJECT_NAME><OBJECT_ID>2015-081G</OBJECT_ID><CENTER_NAME>EARTH</CENTER_NAME><REF_FRAME>TEME</REF_FRAME><TIME_SYSTEM>UTC</TIME_SYSTEM><MEAN_ELEMENT_THEORY>SGP4</MEAN_ELEMENT_THEORY></metadata><data><meanElements><EPOCH>2024-08-18T20:49:16.665600</EPOCH><MEAN_MOTION>14.56884474</MEAN_MOTION><ECCENTRICITY>.0000783</ECCENTRICITY><INCLINATION>46.9991</INCLINATION><RA_OF_ASC_NODE>182.2767</RA_OF_ASC_NODE><ARG_OF_PERICENTER>69.1591</ARG_OF_PERICENTER><MEAN_ANOMALY>290.9378</MEAN_ANOMALY></meanElements><tleParameters><EPHEMERIS_TYPE>0</EPHEMERIS_TYPE><CLASSIFICATION_TYPE>U</CLASSIFICATION_TYPE><NORAD_CAT_ID>41185</NORAD_CAT_ID><ELEMENT_SET_NO>999</ELEMENT_SET_NO><REV_AT_EPOCH>46154</REV_AT_EPOCH><BSTAR>.63433E-3</BSTAR><MEAN_MOTION_DOT>.2705E-4</MEAN_MOTION_DOT><MEAN_MOTION_DDOT>0</MEAN_MOTION_DDOT></tleParameters></data></segment></body></omm>

</ndm>
