ORBCOMM FM103           
1 40091U 14040F   24231.83993010  .00002869  00000+0  67002-3 0  9990
2 40091  47.0067   4.4861 0002287 306.0980  53.9693 14.56914672537058
ORBCOMM FM114           
1 41179U 15081A   24231.59527970  .00002231  00000+0  52904-3 0  9993
2 41179  47.0014 274.8546 0001797 354.0661   6.0202 14.56942597460322
ORBCOMM FM119           
1 41180U 15081B   24231.84479943  .00002746  00000+0  64314-3 0  9998
2 41180  46.9989 182.9024 0000602  92.1438 267.9516 14.56890734461613
ORBCOMM FM105           
1 41181U 15081C   24230.80474214  .00001702  00000+0  53284-3 0  9995
2 41181  47.0011 163.8535 0001680  17.7926 342.3012 14.44554097456876
ORBCOMM FM110           
1 41182U 15081D   24231.57229690  .00002345  00000+0  55344-3 0  9990
2 41182  47.0002 274.3596 0002555 242.4395 117.6231 14.57005538460192
ORBCOMM FM118           
1 41183U 15081E   24231.55008742  .00002243  00000+0  53110-3 0  9998
2 41183  47.0026 274.7959 0002710 237.1396 122.9228 14.56991945460292
ORBCOMM FM112           
1 41184U 15081F   24231.89040261  .00002605  00000+0  61236-3 0  9998
2 41184  46.9973 181.8867 0001283  53.8642 306.2362 14.56873979461562
ORBCOMM FM113           
1 41185U 15081G   24231.86755400  .00002705  00000+0  63433-3 0  9996
2 41185  46.9991 182.2767 0000783  69.1591 290.9378 14.56884474461540
